STARLINK-37474          
1 69167U 26111V   26162.57954839  .00171168  00000+0  96656-3 0  9995
2 69167  53.1583 179.7493 0000931  94.2715 265.8413 15.78134722  3379
STARLINK-37469          
1 69168U 26111W   26162.58335648  .00047543  00000+0  85934-3 0  9994
2 69168  53.1592 180.3047 0000740 103.5770 354.9943 15.49253969  4648
STARLINK-37515          
1 69169U 26111X   26162.51458453  .00160197  00000+0  90740-3 0  9990
2 69169  53.1591 180.0547 0001815  54.8108 305.3083 15.78100283  3362
STARLINK-37437          
1 69170U 26111Y   26162.58335648 -.00061067  00000+0 -34980-3 0  9991
2 69170  53.1584 179.6623 0001117  86.3505 328.9910 15.78090348  4643
STARLINK-37392          
1 69171U 26111Z   26162.50778254  .00101034  00000+0  57811-3 0  9993
2 69171  53.1588 180.0083 0000808  81.7301 278.3812 15.78084460  3368
STARLINK-37472          
1 69172U 26111AA  26162.58335648 -.02572388  00000+0 -22615-1 0  9998
2 69172  53.1590 179.6282 0001190  55.8741  15.2125 15.71493606  4648
STARLINK-37461          
1 69173U 26111AB  26162.58335648  .00053375  00000+0  96294-3 0  9991
2 69173  53.1588 180.2123 0001197 105.3013  38.6562 15.49257232  4640
STARLINK-37333          
1 69174U 26111AC  26162.51300841 -.00419143  00000+0 -25704-2 0  9990
2 69174  53.1581 180.0439 0002234  62.8478 297.2771 15.77697826  3368
STARLINK-37385          
1 69175U 26111AD  26162.58335648 -.02730446  00000+0 -51681-1 0  9997
2 69175  53.1585 180.1276 0001287  64.1164 121.1757 15.51565500  4643
STARLINK-37414          
1 69176U 26111AE  26162.57193117  .00186550  00000+0  10520-2 0  9995
2 69176  53.1583 179.6977 0001288 104.2663 255.8502 15.78117451  3373
STRIX-7                 
1 69177U 26112A   26162.58343427  .00002752  00000+0  22660-3 0  9999
2 69177  44.9064 221.8812 0023689  15.2295 344.9285 15.01410044  3036
SHENZHOU-23 (SZ-23)     
1 69180U 26113A   26162.53781054  .00016554  00000+0  19807-3 0  9995
2 69180  41.4693 356.3769 0008209  31.5834 328.5496 15.60566891292574
STARLINK-37380          
1 69182U 26114A   26162.58291830  .00223786  00000+0  12565-2 0  9991
2 69182  53.1587 230.4786 0001160  85.3733 274.7421 15.78102718  3880
STARLINK-37089          
1 69183U 26114B   26162.58198209  .00220663  00000+0  12386-2 0  9990
2 69183  53.1588 230.4723 0001117  76.9890 283.1256 15.78118459  3884
STARLINK-37428          
1 69184U 26114C   26162.58057558  .00112091  00000+0  64029-3 0  9999
2 69184  53.1591 230.4629 0001163  76.2199 283.8952 15.78078382  3880
STARLINK-37237          
1 69185U 26114D   26162.57782212  .00169405  00000+0  95810-3 0  9994
2 69185  53.1593 230.4442 0001052  63.7624 296.3505 15.78105612  3887
STARLINK-37365          
1 69186U 26114E   26162.57813687  .00096622  00000+0  55370-3 0  9993
2 69186  53.1593 230.4457 0001005  73.7603 286.3529 15.78068799  3889
STARLINK-37209          
1 69187U 26114F   26162.57736404  .00162726  00000+0  92145-3 0  9995
2 69187  53.1592 230.4411 0001038  67.5863 292.5268 15.78099519  3887
STARLINK-37359          
1 69188U 26114G   26162.57692250  .00147489  00000+0  83731-3 0  9996
2 69188  53.1594 230.4380 0001238  83.8937 276.2225 15.78091675  3887
STARLINK-37440          
1 69189U 26114H   26162.59864799  .00099864  00000+0  50278-3 0  9991
2 69189  53.1594 229.8415 0000852 103.4401 256.6717 15.80911142  3897
STARLINK-37282          
1 69190U 26114J   26162.58335648 -.00027955  00000+0 -15758-3 0  9996
2 69190  53.1599 230.3314 0001154  73.6500 359.7083 15.78068119  3911
STARLINK-37422          
1 69191U 26114K   26162.62592789  .00132010  00000+0  66098-3 0  9993
2 69191  53.1585 230.0259 0001085  96.6179 263.4967 15.80912876  3892
STARLINK-37424          
1 69192U 26114L   26162.57057589  .00191706  00000+0  10802-2 0  9990
2 69192  53.1597 230.3957 0001044  71.4852 288.6282 15.78120507  3885
STARLINK-36666          
1 69193U 26114M   26162.43625821  .04877269  00000+0  18402-1 0  9998
2 69193  53.1590 230.9768 0007527 265.4521  94.5643 15.83340289  3865
STARLINK-37355          
1 69194U 26114N   26162.56218314  .00175755  00000+0  87411-3 0  9993
2 69194  53.1586 230.3402 0001938  51.0024 309.1171 15.80919057  3882
STARLINK-37166          
1 69195U 26114P   26162.56068120  .00152159  00000+0  75916-3 0  9992
2 69195  53.1584 230.3289 0001257  66.1851 293.9304 15.80923854  3881
STARLINK-36933          
1 69196U 26114Q   26162.56142929  .00169901  00000+0  84542-3 0  9991
2 69196  53.1588 230.3350 0000883  81.4978 278.6145 15.80926572  3882
STARLINK-37419          
1 69197U 26114R   26162.55993024  .00184488  00000+0  91630-3 0  9994
2 69197  53.1585 230.3246 0001021  86.1093 274.0047 15.80922906  3887
STARLINK-37321          
1 69198U 26114S   26162.55917893  .00165690  00000+0  82452-3 0  9991
2 69198  53.1588 230.3196 0001240  42.5822 317.5297 15.80938145  3886
