OBJECT_NAME,OBJECT_ID,EPOCH,MEAN_MOTION,ECCENTRICITY,INCLINATION,RA_OF_ASC_NODE,ARG_OF_PERICENTER,MEAN_ANOMALY,EPHEMERIS_TYPE,CLASSIFICATION_TYPE,NORAD_CAT_ID,ELEMENT_SET_NO,REV_AT_EPOCH,BSTAR,MEAN_MOTION_DOT,MEAN_MOTION_DDOT
STARLINK-37474,2026-111V,2026-06-11T13:54:32.980896,15.78134722,.00009315,53.1583,179.7493,94.2715,265.8413,0,U,69167,999,337,.96656483E-3,.171168E-2,0
STARLINK-37469,2026-111W,2026-06-11T14:00:01.999872,15.49253969,.00007408,53.1592,180.3047,103.5770,354.9943,0,U,69168,999,464,.85934308E-3,.47543E-3,0
STARLINK-37515,2026-111X,2026-06-11T12:21:00.103392,15.78100283,.00018151,53.1591,180.0547,54.8108,305.3083,0,U,69169,999,336,.90739902E-3,.160197E-2,0
STARLINK-37437,2026-111Y,2026-06-11T14:00:01.999872,15.78090348,.00011171,53.1584,179.6623,86.3505,328.9910,0,U,69170,999,464,-.34980444E-3,-.61067E-3,0
STARLINK-37392,2026-111Z,2026-06-11T12:11:12.411456,15.78084460,.00008081,53.1588,180.0083,81.7301,278.3812,0,U,69171,999,336,.5781064E-3,.101034E-2,0
STARLINK-37472,2026-111AA,2026-06-11T14:00:01.999872,15.71493606,.00011904,53.1590,179.6282,55.8741,15.2125,0,U,69172,999,464,-.22614581E-1,-.2572388E-1,0
STARLINK-37461,2026-111AB,2026-06-11T14:00:01.999872,15.49257232,.0001197,53.1588,180.2123,105.3013,38.6562,0,U,69173,999,464,.9629411E-3,.53375E-3,0
STARLINK-37333,2026-111AC,2026-06-11T12:18:43.926624,15.77697826,.00022342,53.1581,180.0439,62.8478,297.2771,0,U,69174,999,336,-.25704472E-2,-.419143E-2,0
STARLINK-37385,2026-111AD,2026-06-11T14:00:01.999872,15.51565500,.00012875,53.1585,180.1276,64.1164,121.1757,0,U,69175,999,464,-.51680814E-1,-.2730446E-1,0
STARLINK-37414,2026-111AE,2026-06-11T13:43:34.853088,15.78117451,.00012882,53.1583,179.6977,104.2663,255.8502,0,U,69176,999,337,.10519918E-2,.18655E-2,0
STRIX-7,2026-112A,2026-06-11T14:00:08.720928,15.01410044,.00236896,44.9064,221.8812,15.2295,344.9285,0,U,69177,999,303,.22660034E-3,.2752E-4,0
SHENZHOU-23 (SZ-23),2026-113A,2026-06-11T12:54:26.830656,15.60566891,.0008209,41.4693,356.3769,31.5834,328.5496,0,U,69180,999,29257,.19806993E-3,.16554E-3,0
STARLINK-37380,2026-114A,2026-06-11T13:59:24.141120,15.78102718,.000116,53.1587,230.4786,85.3733,274.7421,0,U,69182,999,388,.12565255E-2,.223786E-2,0
STARLINK-37089,2026-114B,2026-06-11T13:58:03.252576,15.78118459,.00011174,53.1588,230.4723,76.9890,283.1256,0,U,69183,999,388,.12386241E-2,.220663E-2,0
STARLINK-37428,2026-114C,2026-06-11T13:56:01.730112,15.78078382,.00011632,53.1591,230.4629,76.2199,283.8952,0,U,69184,999,388,.64029363E-3,.112091E-2,0
STARLINK-37237,2026-114D,2026-06-11T13:52:03.831168,15.78105612,.00010523,53.1593,230.4442,63.7624,296.3505,0,U,69185,999,388,.95809631E-3,.169405E-2,0
STARLINK-37365,2026-114E,2026-06-11T13:52:31.025568,15.78068799,.00010051,53.1593,230.4457,73.7603,286.3529,0,U,69186,999,388,.55370095E-3,.96622E-3,0
STARLINK-37209,2026-114F,2026-06-11T13:51:24.253056,15.78099519,.00010382,53.1592,230.4411,67.5863,292.5268,0,U,69187,999,388,.92144644E-3,.162726E-2,0
STARLINK-37359,2026-114G,2026-06-11T13:50:46.104000,15.78091675,.00012389,53.1594,230.4380,83.8937,276.2225,0,U,69188,999,388,.83730669E-3,.147489E-2,0
STARLINK-37440,2026-114H,2026-06-11T14:22:03.186336,15.80911142,.00008528,53.1594,229.8415,103.4401,256.6717,0,U,69189,999,389,.50278403E-3,.99864E-3,0
STARLINK-37282,2026-114J,2026-06-11T14:00:01.999872,15.78068119,.00011542,53.1599,230.3314,73.6500,359.7083,0,U,69190,999,391,-.15758288E-3,-.27955E-3,0
STARLINK-37422,2026-114K,2026-06-11T15:01:20.169696,15.80912876,.0001085,53.1585,230.0259,96.6179,263.4967,0,U,69191,999,389,.66097586E-3,.13201E-2,0
STARLINK-37424,2026-114L,2026-06-11T13:41:37.756896,15.78120507,.00010443,53.1597,230.3957,71.4852,288.6282,0,U,69192,999,388,.10801601E-2,.191706E-2,0
STARLINK-36666,2026-114M,2026-06-11T10:28:12.709344,15.83340289,.00075277,53.1590,230.9768,265.4521,94.5643,0,U,69193,999,386,.18402315E-1,.4877269E-1,0
STARLINK-37355,2026-114N,2026-06-11T13:29:32.623296,15.80919057,.00019385,53.1586,230.3402,51.0024,309.1171,0,U,69194,999,388,.87411197E-3,.175755E-2,0
STARLINK-37166,2026-114P,2026-06-11T13:27:22.855680,15.80923854,.00012579,53.1584,230.3289,66.1851,293.9304,0,U,69195,999,388,.75916021E-3,.152159E-2,0
STARLINK-36933,2026-114Q,2026-06-11T13:28:27.490656,15.80926572,.00008833,53.1588,230.3350,81.4978,278.6145,0,U,69196,999,388,.84542112E-3,.169901E-2,0
STARLINK-37419,2026-114R,2026-06-11T13:26:17.972736,15.80922906,.00010212,53.1585,230.3246,86.1093,274.0047,0,U,69197,999,388,.91630418E-3,.184488E-2,0
STARLINK-37321,2026-114S,2026-06-11T13:25:13.059552,15.80938145,.00012402,53.1588,230.3196,42.5822,317.5297,0,U,69198,999,388,.82451974E-3,.16569E-2,0
